0 COMETS
1 25175U 98011A   13281.93666866 -.00000086  00000-0 -26672-2 0   288
2 25175 030.0893 220.8694 5296181 295.4696 312.8391 04.38925948259150
0 COMETS
1 25175U 98011A   13286.49632050 -.00000088  00000-0 -18357-2 0   296
2 25175 030.0860 217.6527 5295199 300.5623 317.6905 04.38925221259359
0 COMETS
1 25175U 98011A   13291.28148951 -.00000093  00000-0 -28073-2 0   305
2 25175 030.0834 214.2796 5294195 305.9031 318.8752 04.38925099259567
0 COMETS
1 25175U 98011A   13295.38773661 -.00000102  00000-0 -27076-2 0   316
2 25175 030.0808 211.3859 5293400 310.4853 327.2731 04.38924512259747
